SEEDS II (CO-66)        
1 32791U 08021J   26068.92109284  .00023758  00000+0  84213-3 0  9995
2 32791  97.7519  62.3611 0001448 359.2618   0.8619 15.29097235972108
STARLINK-36409          
1 67406U 26005C   26068.48508282  .00042276  00000+0  15358-2 0  9999
2 67406  42.9972 239.2756 0001820 274.1600  85.9044 15.27606185  8664
